start=new Date('2023-04-23T00:00:00.000Z').valueOf();
sats=[{"PERIAPSIS":"546.449","EPOCH":"2023-04-22T04:53:36.220416","RA_OF_ASC_NODE":"46.4089","OBJECT_ID":"2021-038B","MEAN_MOTION_DDOT":"0.0000000000000","RCS_SIZE":"LARGE","APOAPSIS":"548.100","TIME_SYSTEM":"UTC","ARG_OF_PERICENTER":"73.9629","SITE":"AFETR","BSTAR":"0.00193250000000","MEAN_ANOMALY":"286.1492","MEAN_ELEMENT_THEORY":"SGP4","ECCENTRICITY":"0.00011920","DECAY_DATE":null,"NORAD_CAT_ID":"48354","INCLINATION":"53.0557","CLASSIFICATION_TYPE":"U","EPHEMERIS_TYPE":"0","REV_AT_EPOCH":"10898","REF_FRAME":"TEME","GP_ID":"230568806","TLE_LINE2":"2 48354  53.0557  46.4089 0001192  73.9629 286.1492 15.06380065108983","MEAN_MOTION":"15.06380065","FILE":"3892150","COUNTRY_CODE":"US","PERIOD":"95.593","MEAN_MOTION_DOT":"0.00028605","OBJECT_TYPE":"PAYLOAD","LAUNCH_DATE":"2021-05-04","CENTER_NAME":"EARTH","OBJECT_NAME":"STARLINK-2674","TLE_LINE1":"1 48354U 21038B   23112.20389144  .00028605  00000-0  19325-2 0  9991","SEMIMAJOR_AXIS":"6925.410","ELEMENT_SET_NO":"999"},{"CLASSIFICATION_TYPE":"U","DECAY_DATE":null,"NORAD_CAT_ID":"48355","INCLINATION":"53.0545","ECCENTRICITY":"0.00009490","MEAN_ELEMENT_THEORY":"SGP4","MEAN_ANOMALY":"283.7199","SITE":"AFETR","BSTAR":"0.00166250000000","ARG_OF_PERICENTER":"76.3895","TIME_SYSTEM":"UTC","APOAPSIS":"547.867","RCS_SIZE":"LARGE","MEAN_MOTION_DDOT":"0.0000000000000","OBJECT_ID":"2021-038C","RA_OF_ASC_NODE":"45.2351","EPOCH":"2023-04-22T11:10:27.560064","PERIAPSIS":"546.553","ELEMENT_SET_NO":"999","SEMIMAJOR_AXIS":"6925.345","TLE_LINE1":"1 48355U 21038C   23112.46559676  .00024569  00000-0  16625-2 0  9994","OBJECT_NAME":"STARLINK-2635","LAUNCH_DATE":"2021-05-04","CENTER_NAME":"EARTH","OBJECT_TYPE":"PAYLOAD","MEAN_MOTION_DOT":"0.00024569","PERIOD":"95.592","COUNTRY_CODE":"US","FILE":"3892071","MEAN_MOTION":"15.06401237","TLE_LINE2":"2 48355  53.0545  45.2351 0000949  76.3895 283.7199 15.06401237108433","GP_ID":"230562715","REF_FRAME":"TEME","REV_AT_EPOCH":"10843","EPHEMERIS_TYPE":"0"},{"BSTAR":"0.00042589000000","SITE":"AFETR","MEAN_ELEMENT_THEORY":"SGP4","MEAN_ANOMALY":"280.1120","ARG_OF_PERICENTER":"80.0040","CLASSIFICATION_TYPE":"U","ECCENTRICITY":"0.00015100","NORAD_CAT_ID":"48356","DECAY_DATE":null,"INCLINATION":"53.0559","OBJECT_ID":"2021-038D","RCS_SIZE":"LARGE","MEAN_MOTION_DDOT":"0.0000000000000","EPOCH":"2023-04-21T12:47:34.845216","RA_OF_ASC_NODE":"49.4246","PERIAPSIS":"546.104","APOAPSIS":"548.196","TIME_SYSTEM":"UTC","CENTER_NAME":"EARTH","LAUNCH_DATE":"2021-05-04","OBJECT_TYPE":"PAYLOAD","ELEMENT_SET_NO":"999","OBJECT_NAME":"STARLINK-2637","TLE_LINE1":"1 48356U 21038D   23111.53304219  .00006071  00000-0  42589-3 0  9990","SEMIMAJOR_AXIS":"6925.285","REF_FRAME":"TEME","GP_ID":"230496084","TLE_LINE2":"2 48356  53.0559  49.4246 0001510  80.0040 280.1120 15.06420752108299","REV_AT_EPOCH":"10829","EPHEMERIS_TYPE":"0","FILE":"3891529","MEAN_MOTION_DOT":"0.00006071","PERIOD":"95.591","COUNTRY_CODE":"US","MEAN_MOTION":"15.06420752"},{"INCLINATION":"53.0541","DECAY_DATE":null,"NORAD_CAT_ID":"48357","ECCENTRICITY":"0.00013320","CLASSIFICATION_TYPE":"U","ARG_OF_PERICENTER":"70.6952","MEAN_ANOMALY":"289.4181","MEAN_ELEMENT_THEORY":"SGP4","SITE":"AFETR","BSTAR":"0.00054430000000","TIME_SYSTEM":"UTC","APOAPSIS":"548.061","PERIAPSIS":"546.216","RA_OF_ASC_NODE":"49.4521","EPOCH":"2023-04-21T12:46:12.874080","MEAN_MOTION_DDOT":"0.0000000000000","RCS_SIZE":"LARGE","OBJECT_ID":"2021-038E","TLE_LINE1":"1 48357U 21038E   23111.53209345  .00007840  00000-0  54430-3 0  9998","SEMIMAJOR_AXIS":"6925.274","OBJECT_NAME":"STARLINK-2636","ELEMENT_SET_NO":"999","OBJECT_TYPE":"PAYLOAD","LAUNCH_DATE":"2021-05-04","CENTER_NAME":"EARTH","MEAN_MOTION":"15.06424412","COUNTRY_CODE":"US","PERIOD":"95.591","MEAN_MOTION_DOT":"0.00007840","FILE":"3891529","EPHEMERIS_TYPE":"0","REV_AT_EPOCH":"10829","GP_ID":"230496824","TLE_LINE2":"2 48357  53.0541  49.4521 0001332  70.6952 289.4181 15.06424412108292","REF_FRAME":"TEME"},{"CLASSIFICATION_TYPE":"U","INCLINATION":"53.0543","DECAY_DATE":null,"NORAD_CAT_ID":"48358","ECCENTRICITY":"0.00024270","MEAN_ELEMENT_THEORY":"SGP4","MEAN_ANOMALY":"280.4662","BSTAR":"0.00137770000000","SITE":"AFETR","ARG_OF_PERICENTER":"79.6601","TIME_SYSTEM":"UTC","APOAPSIS":"548.901","RCS_SIZE":"LARGE","MEAN_MOTION_DDOT":"0.0000000000000","OBJECT_ID":"2021-038F","RA_OF_ASC_NODE":"46.7678","EPOCH":"2023-04-22T02:56:49.954560","PERIAPSIS":"545.539","ELEMENT_SET_NO":"999","TLE_LINE1":"1 48358U 21038F   23112.12280040  .00020298  00000-0  13777-2 0  9996","SEMIMAJOR_AXIS":"6925.355","OBJECT_NAME":"STARLINK-2624","CENTER_NAME":"EARTH","LAUNCH_DATE":"2021-05-04","OBJECT_TYPE":"PAYLOAD","MEAN_MOTION_DOT":"0.00020298","PERIOD":"95.592","COUNTRY_CODE":"US","FILE":"3892071","MEAN_MOTION":"15.06397847","TLE_LINE2":"2 48358  53.0543  46.7678 0002427  79.6601 280.4662 15.06397847108379","GP_ID":"230561981","REF_FRAME":"TEME","REV_AT_EPOCH":"10837","EPHEMERIS_TYPE":"0"},{"PERIAPSIS":"546.443","RA_OF_ASC_NODE":"43.8101","EPOCH":"2023-04-22T18:46:55.242912","MEAN_MOTION_DDOT":"0.0000000000000","RCS_SIZE":"LARGE","OBJECT_ID":"2021-038G","APOAPSIS":"547.886","TIME_SYSTEM":"UTC","ARG_OF_PERICENTER":"77.5193","MEAN_ANOMALY":"282.5913","MEAN_ELEMENT_THEORY":"SGP4","BSTAR":"0.00187160000000","SITE":"AFETR","DECAY_DATE":null,"NORAD_CAT_ID":"48359","INCLINATION":"53.0550","ECCENTRICITY":"0.00010420","CLASSIFICATION_TYPE":"U","REV_AT_EPOCH":"10847","EPHEMERIS_TYPE":"0","GP_ID":"230593143","TLE_LINE2":"2 48359  53.0550  43.8101 0001042  77.5193 282.5913 15.06416030108471","REF_FRAME":"TEME","MEAN_MOTION":"15.06416030","COUNTRY_CODE":"US","PERIOD":"95.591","MEAN_MOTION_DOT":"0.00027718","FILE":"3892285","OBJECT_TYPE":"PAYLOAD","LAUNCH_DATE":"2021-05-04","CENTER_NAME":"EARTH","TLE_LINE1":"1 48359U 21038G   23112.78258383  .00027718  00000-0  18716-2 0  9996","SEMIMAJOR_AXIS":"6925.299","OBJECT_NAME":"STARLINK-2628","ELEMENT_SET_NO":"999"},{"MEAN_MOTION_DOT":"0.00021461","PERIOD":"95.591","COUNTRY_CODE":"US","FILE":"3891529","MEAN_MOTION":"15.06425294","GP_ID":"230496584","TLE_LINE2":"2 48360  53.0558  50.9746 0001061  89.4697 270.6414 15.06425294108237","REF_FRAME":"TEME","REV_AT_EPOCH":"10823","EPHEMERIS_TYPE":"0","ELEMENT_SET_NO":"999","SEMIMAJOR_AXIS":"6925.271","TLE_LINE1":"1 48360U 21038H   23111.18656463  .00021461  00000-0  14543-2 0  9995","OBJECT_NAME":"STARLINK-2622","CENTER_NAME":"EARTH","LAUNCH_DATE":"2021-05-04","OBJECT_TYPE":"PAYLOAD","TIME_SYSTEM":"UTC","APOAPSIS":"547.871","RCS_SIZE":"LARGE","MEAN_MOTION_DDOT":"0.0000000000000","OBJECT_ID":"2021-038H","EPOCH":"2023-04-21T04:28:39.184032","RA_OF_ASC_NODE":"50.9746","PERIAPSIS":"546.401","CLASSIFICATION_TYPE":"U","INCLINATION":"53.0558","DECAY_DATE":null,"NORAD_CAT_ID":"48360","ECCENTRICITY":"0.00010610","MEAN_ELEMENT_THEORY":"SGP4","MEAN_ANOMALY":"270.6414","SITE":"AFETR","BSTAR":"0.00145430000000","ARG_OF_PERICENTER":"89.4697"},{"TIME_SYSTEM":"UTC","APOAPSIS":"548.055","EPOCH":"2023-04-22T05:51:59.637600","RA_OF_ASC_NODE":"46.2265","PERIAPSIS":"546.472","RCS_SIZE":"LARGE","MEAN_MOTION_DDOT":"0.0000000000000","OBJECT_ID":"2021-038J","INCLINATION":"53.0561","DECAY_DATE":null,"NORAD_CAT_ID":"48361","ECCENTRICITY":"0.00011430","CLASSIFICATION_TYPE":"U","ARG_OF_PERICENTER":"72.6557","MEAN_ELEMENT_THEORY":"SGP4","MEAN_ANOMALY":"287.4557","BSTAR":"0.00202130000000","SITE":"AFETR","MEAN_MOTION":"15.06383622","MEAN_MOTION_DOT":"0.00029941","PERIOD":"95.593","COUNTRY_CODE":"US","FILE":"3892071","REV_AT_EPOCH":"10839","EPHEMERIS_TYPE":"0","TLE_LINE2":"2 48361  53.0561  46.2265 0001143  72.6557 287.4557 15.06383622108395","GP_ID":"230561230","REF_FRAME":"TEME","SEMIMAJOR_AXIS":"6925.399","TLE_LINE1":"1 48361U 21038J   23112.24444025  .00029941  00000-0  20213-2 0  9995","OBJECT_NAME":"STARLINK-2591","ELEMENT_SET_NO":"999","OBJECT_TYPE":"PAYLOAD","LAUNCH_DATE":"2021-05-04","CENTER_NAME":"EARTH"},{"MEAN_ANOMALY":"297.2023","MEAN_ELEMENT_THEORY":"SGP4","BSTAR":"0.00153040000000","SITE":"AFETR","ARG_OF_PERICENTER":"62.9126","CLASSIFICATION_TYPE":"U","INCLINATION":"53.0555","DECAY_DATE":null,"NORAD_CAT_ID":"48362","ECCENTRICITY":"0.00015720","MEAN_MOTION_DDOT":"0.0000000000000","RCS_SIZE":"LARGE","OBJECT_ID":"2021-038K","PERIAPSIS":"546.172","EPOCH":"2023-04-22T05:04:14.506464","RA_OF_ASC_NODE":"46.4707","APOAPSIS":"548.349","TIME_SYSTEM":"UTC","LAUNCH_DATE":"2021-05-04","CENTER_NAME":"EARTH","OBJECT_TYPE":"PAYLOAD","ELEMENT_SET_NO":"999","SEMIMAJOR_AXIS":"6925.395","TLE_LINE1":"1 48362U 21038K   23112.21127901  .00022578  00000-0  15304-2 0  9998","OBJECT_NAME":"STARLINK-2578","GP_ID":"230568949","TLE_LINE2":"2 48362  53.0555  46.4707 0001572  62.9126 297.2023 15.06384775108984","REF_FRAME":"TEME","REV_AT_EPOCH":"10898","EPHEMERIS_TYPE":"0","COUNTRY_CODE":"US","PERIOD":"95.593","MEAN_MOTION_DOT":"0.00022578","FILE":"3892162","MEAN_MOTION":"15.06384775"},{"ARG_OF_PERICENTER":"94.2231","SITE":"AFETR","BSTAR":"-0.00004795800000","MEAN_ELEMENT_THEORY":"SGP4","MEAN_ANOMALY":"265.8895","ECCENTRICITY":"0.00011980","DECAY_DATE":null,"NORAD_CAT_ID":"48363","INCLINATION":"53.0563","CLASSIFICATION_TYPE":"U","RA_OF_ASC_NODE":"41.3318","EPOCH":"2023-04-22T05:18:07.973568","PERIAPSIS":"546.382","OBJECT_ID":"2021-038L","RCS_SIZE":"LARGE","MEAN_MOTION_DDOT":"0.0000000000000","APOAPSIS":"548.041","TIME_SYSTEM":"UTC","OBJECT_TYPE":"PAYLOAD","LAUNCH_DATE":"2021-05-04","CENTER_NAME":"EARTH","OBJECT_NAME":"STARLINK-2626","TLE_LINE1":"1 48363U 21038L   23112.22092562 -.00000996  00000-0 -47958-4 0  9998","SEMIMAJOR_AXIS":"6925.347","ELEMENT_SET_NO":"999","REV_AT_EPOCH":"10846","EPHEMERIS_TYPE":"0","REF_FRAME":"TEME","GP_ID":"230562716","TLE_LINE2":"2 48363  53.0563  41.3318 0001198  94.2231 265.8895 15.06400574108462","MEAN_MOTION":"15.06400574","FILE":"3892071","PERIOD":"95.592","MEAN_MOTION_DOT":"-0.00000996","COUNTRY_CODE":"US"}];
